OBJECT_NAME,OBJECT_ID,EPOCH,MEAN_MOTION,ECCENTRICITY,INCLINATION,RA_OF_ASC_NODE,ARG_OF_PERICENTER,MEAN_ANOMALY,EPHEMERIS_TYPE,CLASSIFICATION_TYPE,NORAD_CAT_ID,ELEMENT_SET_NO,REV_AT_EPOCH,BSTAR,MEAN_MOTION_DOT,MEAN_MOTION_DDOT
IRIDIUM 154,2018-061F,2026-06-15T23:25:06.188448,14.34216230,.0002215,86.3970,57.3149,92.6976,267.4474,0,U,43574,999,41323,.70070435E-4,.216E-5,0
IRIDIUM 163,2018-061G,2026-06-15T22:57:42.149376,14.34216428,.00022629,86.3960,57.2368,83.2718,276.8736,0,U,43575,999,41320,.1575253E-4,.64E-6,0
IRIDIUM 156,2018-061H,2026-06-15T22:21:10.415520,14.34217928,.00020763,86.3960,57.2547,82.1452,277.9979,0,U,43576,999,41319,.40767329E-4,.134E-5,0
IRIDIUM 164,2018-061J,2026-06-15T18:32:50.365824,14.34218549,.00020996,86.3962,57.3612,88.9107,271.2329,0,U,43577,999,41321,.38515855E-4,.128E-5,0
IRIDIUM 159,2018-061K,2026-06-15T22:48:34.510752,14.34217720,.00022865,86.3960,57.2236,83.3853,276.7603,0,U,43578,999,41320,.22442483E-4,.83E-6,0
IRIDIUM 180,2019-002A,2026-06-15T21:07:22.833696,14.34218775,.00022468,86.3971,354.1441,88.9034,271.2419,0,U,43922,999,38880,.66162181E-4,.205E-5,0
IRIDIUM 176,2019-002B,2026-06-15T22:27:09.527616,14.72265647,.00022649,86.6090,354.0646,92.3052,267.8424,0,U,43923,999,39906,.10056973E-3,.659E-5,0
IRIDIUM 168,2019-002C,2026-06-15T22:38:42.841824,14.34218235,.00021693,86.3973,354.1949,88.9782,271.1662,0,U,43924,999,38879,.10442959E-4,.49E-6,0
IRIDIUM 173,2019-002D,2026-06-15T22:20:26.824992,14.34218549,.00021826,86.3968,354.0890,87.0025,273.1420,0,U,43925,999,38877,.40045837E-4,.132E-5,0
IRIDIUM 169,2019-002E,2026-06-15T20:40:01.552512,14.38608401,.00018986,86.4225,25.7479,72.0221,288.1184,0,U,43926,999,39003,.70913504E-4,.237E-5,0
IRIDIUM 172,2019-002F,2026-06-15T22:11:18.843360,14.34218089,.00022479,86.3969,354.0997,88.8708,271.2746,0,U,43927,999,38878,.43499991E-4,.142E-5,0
IRIDIUM 175,2019-002G,2026-06-15T21:20:56.735520,14.43612042,.00023282,86.4511,291.0634,183.2866,176.8320,0,U,43928,999,39879,.72771414E-4,.267E-5,0
IRIDIUM 171,2019-002H,2026-06-15T23:24:22.876992,14.34218113,.00020078,86.3979,354.3845,89.6936,270.4490,0,U,43929,999,38878,.70188655E-4,.216E-5,0
IRIDIUM 170,2019-002J,2026-06-15T22:36:03.562560,14.72266127,.00023494,86.6091,354.0644,88.9233,271.2253,0,U,43930,999,39907,.10040963E-3,.658E-5,0
IRIDIUM 167,2019-002K,2026-06-15T23:15:14.847840,14.34217646,.00017622,86.3967,354.1034,90.8310,269.3088,0,U,43931,999,38878,-.2661898E-5,.12E-6,0
IRIDIUM 181,2023-068S,2026-06-15T22:16:06.625344,14.43311786,.00023341,86.4500,57.3169,88.3446,271.8022,0,U,56726,999,16225,.73562058E-4,.268E-5,0
IRIDIUM 177,2023-068T,2026-06-15T23:17:35.003328,14.80228355,.00023657,86.1961,329.3693,87.0188,273.1304,0,U,56727,999,16618,.11733059E-3,.918E-5,0
IRIDIUM 174,2023-068U,2026-06-15T22:18:17.410752,14.72262447,.00024709,86.6098,354.2170,84.0896,276.0602,0,U,56728,999,16583,.10395783E-3,.68E-5,0
IRIDIUM 178,2023-068V,2026-06-15T21:24:35.384544,14.80231783,.0002639,86.6538,25.9015,86.0830,274.0693,0,U,56729,999,16617,.10671602E-3,.837E-5,0
IRIDIUM 179,2023-068W,2026-06-15T16:24:46.476000,14.80234816,.00024266,86.6780,34.9640,88.6857,271.4642,0,U,56730,999,16614,.93387712E-4,.736E-5,0
