IRIDIUM 154             
1 43574U 18061F   26166.97576607  .00000216  00000+0  70070-4 0  9993
2 43574  86.3970  57.3149 0002215  92.6976 267.4474 14.34216230413239
IRIDIUM 163             
1 43575U 18061G   26166.95673784  .00000064  00000+0  15753-4 0  9994
2 43575  86.3960  57.2368 0002262  83.2718 276.8736 14.34216428413204
IRIDIUM 156             
1 43576U 18061H   26166.93137055  .00000134  00000+0  40767-4 0  9990
2 43576  86.3960  57.2547 0002076  82.1452 277.9979 14.34217928413195
IRIDIUM 164             
1 43577U 18061J   26166.77280516  .00000128  00000+0  38516-4 0  9996
2 43577  86.3962  57.3612 0002099  88.9107 271.2329 14.34218549413217
IRIDIUM 159             
1 43578U 18061K   26166.95039943  .00000083  00000+0  22442-4 0  9994
2 43578  86.3960  57.2236 0002286  83.3853 276.7603 14.34217720413206
IRIDIUM 180             
1 43922U 19002A   26166.88012539  .00000205  00000+0  66162-4 0  9990
2 43922  86.3971 354.1441 0002246  88.9034 271.2419 14.34218775388809
IRIDIUM 176             
1 43923U 19002B   26166.93552694  .00000659  00000+0  10057-3 0  9992
2 43923  86.6090 354.0646 0002264  92.3052 267.8424 14.72265647399069
IRIDIUM 168             
1 43924U 19002C   26166.94355141  .00000049  00000+0  10443-4 0  9995
2 43924  86.3973 354.1949 0002169  88.9782 271.1662 14.34218235388798
IRIDIUM 173             
1 43925U 19002D   26166.93086603  .00000132  00000+0  40046-4 0  9994
2 43925  86.3968 354.0890 0002182  87.0025 273.1420 14.34218549388772
IRIDIUM 169             
1 43926U 19002E   26166.86112908  .00000237  00000+0  70914-4 0  9998
2 43926  86.4225  25.7479 0001898  72.0221 288.1184 14.38608401390039
IRIDIUM 172             
1 43927U 19002F   26166.92452365  .00000142  00000+0  43500-4 0  9996
2 43927  86.3969 354.0997 0002247  88.8708 271.2746 14.34218089388782
IRIDIUM 175             
1 43928U 19002G   26166.88954555  .00000267  00000+0  72771-4 0  9990
2 43928  86.4511 291.0634 0002328 183.2866 176.8320 14.43612042398797
IRIDIUM 171             
1 43929U 19002H   26166.97526478  .00000216  00000+0  70189-4 0  9995
2 43929  86.3979 354.3845 0002007  89.6936 270.4490 14.34218113388781
IRIDIUM 170             
1 43930U 19002J   26166.94170790  .00000658  00000+0  10041-3 0  9996
2 43930  86.6091 354.0644 0002349  88.9233 271.2253 14.72266127399076
IRIDIUM 167             
1 43931U 19002K   26166.96892185  .00000012  00000+0 -26619-5 0  9993
2 43931  86.3967 354.1034 0001762  90.8310 269.3088 14.34217646388786
IRIDIUM 181             
1 56726U 23068S   26166.92785446  .00000268  00000+0  73562-4 0  9993
2 56726  86.4500  57.3169 0002334  88.3446 271.8022 14.43311786162253
IRIDIUM 177             
1 56727U 23068T   26166.97054402  .00000918  00000+0  11733-3 0  9993
2 56727  86.1961 329.3693 0002365  87.0188 273.1304 14.80228355166183
IRIDIUM 174             
1 56728U 23068U   26166.92936818  .00000680  00000+0  10396-3 0  9999
2 56728  86.6098 354.2170 0002470  84.0896 276.0602 14.72262447165832
IRIDIUM 178             
1 56729U 23068V   26166.89207621  .00000837  00000+0  10672-3 0  9990
2 56729  86.6538  25.9015 0002639  86.0830 274.0693 14.80231783166173
IRIDIUM 179             
1 56730U 23068W   26166.68387125  .00000736  00000+0  93388-4 0  9991
2 56730  86.6780  34.9640 0002426  88.6857 271.4642 14.80234816166141
